TEIKYOSAT-4 (OORURI)    
1 49396U 21102B   26068.67534185  .00002438  00000+0  15740-3 0  9994
2 49396  97.3797 101.9931 0010345 276.5421  83.4630 15.09119208237719
STARLINK-34952          
1 65197U 25175Z   26068.61902420  .00006637  00000+0  46386-3 0  9995
2 65197  97.6018 302.6484 0002358  68.2368 291.9109 15.05637468 32639
