[{"OBJECT_NAME":"TEIKYOSAT-4 (OORURI)","OBJECT_ID":"2021-102B","EPOCH":"2026-03-09T16:12:29.535840","MEAN_MOTION":15.09119208,"ECCENTRICITY":0.00103447,"INCLINATION":97.3797,"RA_OF_ASC_NODE":101.9931,"ARG_OF_PERICENTER":276.5421,"MEAN_ANOMALY":83.463,"EPHEMERIS_TYPE":0,"CLASSIFICATION_TYPE":"U","NORAD_CAT_ID":49396,"ELEMENT_SET_NO":999,"REV_AT_EPOCH":23771,"BSTAR":0.00015739844,"MEAN_MOTION_DOT":2.438e-5,"MEAN_MOTION_DDOT":0},{"OBJECT_NAME":"STARLINK-34952","OBJECT_ID":"2025-175Z","EPOCH":"2026-03-09T14:51:23.690880","MEAN_MOTION":15.05637468,"ECCENTRICITY":0.0002358,"INCLINATION":97.6018,"RA_OF_ASC_NODE":302.6484,"ARG_OF_PERICENTER":68.2368,"MEAN_ANOMALY":291.9109,"EPHEMERIS_TYPE":0,"CLASSIFICATION_TYPE":"U","NORAD_CAT_ID":65197,"ELEMENT_SET_NO":999,"REV_AT_EPOCH":3263,"BSTAR":0.00046386,"MEAN_MOTION_DOT":6.637e-5,"MEAN_MOTION_DDOT":0}]
